[{"OBJECT_NAME":"STARLINK-6306","OBJECT_ID":"2023-094AA","EPOCH":"2026-03-09T22:00:01.999584","MEAN_MOTION":15.05016209,"ECCENTRICITY":2.579e-5,"INCLINATION":43.0016,"RA_OF_ASC_NODE":16.5352,"ARG_OF_PERICENTER":254.0128,"MEAN_ANOMALY":296.2187,"EPHEMERIS_TYPE":0,"CLASSIFICATION_TYPE":"U","NORAD_CAT_ID":57242,"ELEMENT_SET_NO":999,"REV_AT_EPOCH":562,"BSTAR":0.001881778,"MEAN_MOTION_DOT":0.00027056,"MEAN_MOTION_DDOT":0},{"OBJECT_NAME":"YUNYAO-1 47","OBJECT_ID":"2025-059E","EPOCH":"2026-03-09T22:46:15.708288","MEAN_MOTION":15.10508558,"ECCENTRICITY":0.00172664,"INCLINATION":97.6066,"RA_OF_ASC_NODE":250.9227,"ARG_OF_PERICENTER":135.6694,"MEAN_ANOMALY":224.5922,"EPHEMERIS_TYPE":0,"CLASSIFICATION_TYPE":"U","NORAD_CAT_ID":63348,"ELEMENT_SET_NO":999,"REV_AT_EPOCH":5331,"BSTAR":0.00029014568,"MEAN_MOTION_DOT":4.732e-5,"MEAN_MOTION_DDOT":0}]
